name,code,eng_name,line,out_code,address,x,y
가능,1907,Ganeung,01호선,109,경기 의정부시 평화로 633,127.044288264841,37.7483963196456
가산디지털단지,1702,Gasan Digital Complex,01호선,P142,서울특별시 금천구 벚꽃로 309 (가산동),126.882661758356,37.4803959660982
간석,1816,Ganseok,01호선,155,인천 남동구 석정로 522-11,126.694045387665,37.4651640782907
개봉,1801,Gaebong,01호선,143,서울 구로구 경인로40길 47,126.858715959622,37.4946417150651
관악,1705,Gwanak,01호선,P146,경기 안양시 만안구 경수대로1273번길 46,126.908499519816,37.4195688704361
광명,1750,Gwangmyeong,01호선,P144-1,경기 광명시 광명역로 21,126.884803975489,37.4164513418111
광운대,1019,Kwangwoon Univ.,01호선,119,서울 노원구 광운로 20,127.058270608867,37.6192404638865
구로,1701,Guro,01호선,141,서울 구로구 구로중앙로 174,126.882250411023,37.5033243797635
구일,1813,Guil,01호선,142,서울특별시 구로구 구로1동,126.8674103,37.496273
군포,1709,Gunpo,01호선,P150,경기 군포시 군포역1길 27,126.948521987571,37.3542355297842
금천구청,1703,Geumcheon-Gu Office,01호선,P144,서울 금천구 시흥대로73길 70,126.895455660768,37.4568415971315
남영,1002,Namyeong,01호선,134,서울 용산구 한강대로77길 25,126.971333201935,37.5405665171783
노량진,1004,Noryangjin,01호선,136,서울 동작구 노량진로 174,126.945392280831,37.5136064876753
녹양,1908,Nogyang,01호선,108,경기 의정부시 평화로 757,127.042279351606,37.759385253302
녹천,1021,Nokcheon,01호선,117,,127.0492173,37.644599
당정,1729,Dangjeong,01호선,P151,경기 군포시 당정역로 91,126.948366740427,37.3435961103462
도봉,1902,Dobong,01호선,114,서울 도봉구 도봉로170길 2,127.045537098185,37.6792124768903
도봉산,1903,Dobongsan,01호선,113,서울 도봉구 도봉로 948,127.046062716639,37.6895116783324
도원,1817,Dowon,01호선,159,인천 동구 참외전로 245,126.642530652655,37.4687689389912
도화,1823,Dohwa,01호선,157,인천 미추홀구 숙골로24번길 247,126.668575935273,37.4661175111199
독산,1714,Doksan,01호선,P143,서울 금천구 시흥대로 334,126.897847325412,37.4633309522334
동대문,155,Dongdaemun,01호선,128,서울특별시 중구 마른내로 지하162 (광희동1가),127.010631546623,37.5716676040162
동대문,155,Dongdaemun,01호선,128,서울특별시 종로구 종로 지하 302 (창신1동) (1호선 동대문역),127.010631546623,37.5716676040162
동대문,155,Dongdaemun,01호선,128,서울특별시 종로구  율곡로 지하 308 (종로6가) (4호선 동대문역),127.010631546623,37.5716676040162
동두천중앙,1913,Dongducheon jungang,01호선,103,경기 동두천시 동두천로 228,127.056425381835,37.9017796086587
동묘앞,159,Dongmyo,01호선,127,서울특별시 종로구 지봉로 지하24 (숭인동),127.016364305231,37.5732177197872
동묘앞,159,Dongmyo,01호선,127,서울특별시 종로구 종로 359 (숭인동) (1호선 동묘앞역),127.016364305231,37.5732177197872
두정,1727,Dujeong,01호선,P168,충남 천안시 서북구 두정로 289,127.149081128167,36.8336003142492
망월사,1904,Mangwolsa,01호선,112,경기 의정부시 평화로 221,127.047418285506,37.7102191609902
명학,1707,Myeonghak,01호선,P148,경기 안양시 만안구 안양로 110,126.933794877728,37.3848177480497
방학,1901,Banghak,01호선,115,서울 도봉구 도봉로150다길 3,127.044319649671,37.6674390206638
보산,1914,Bosan,01호선,102,경기 동두천시 평화로 2539,127.057178751034,37.9141449200828
부개,1815,Bugae,01호선,151,인천 부평구 길주남로 117,126.734721179271,37.5043193934127
서울역,150,Seoul Station,01호선,133,서울특별시 세종대로 지하 2 (남대문로 5가) (1호선 서울역),126.972091251236,37.5559802396321
서울역,150,Seoul Station,01호선,133,서울특별시 용산구 한강대로 지하 392 (동자동) (4호선 서울역),126.972091251236,37.5559802396321
석계,1018,Seokgye,01호선,120,서울특별시 노원구 화랑로 지하347-1 (월계동),127.065687159447,37.6150068855165
석수,1704,Seoksu,01호선,P145,경기 안양시 만안구 경수대로 1431,126.902466596299,37.4341812306686
성환,1725,Seonghwan,01호선,P166,충남 천안시 서북구 성환읍 성환1로 237-5,127.126885622854,36.9161371757052
세류,1715,Seryu,01호선,P156,경기 수원시 권선구 정조로 393-1,127.013741106504,37.2439662356408
소사,1814,Sosa,01호선,147,경기 부천시 경인로 363,126.795513197975,37.4827712680894
송탄,1721,Songtan,01호선,P162,경기 평택시 송탄공원로 43,127.05427601706,37.0757883491799
신길,1032,Singil,01호선,138,서울 영등포구 영등포로 327,126.91827217851,37.5168013825121
신도림,1007,Sindorim,01호선,140,서울특별시 구로구 새말로 117-21 (2호선 신도림역),126.891312500851,37.508908482648
신설동,156,Sinseol-dong,01호선,126,서울특별시 동대문구 왕산로 지하 1 (신설동) (1호선 신설동역),127.024456700382,37.5760299683175
신설동,156,Sinseol-dong,01호선,126,서울특별시 동대문구 왕산로 지하 1 (신설동) (2호선 신설동역),127.024456700382,37.5760299683175
양주,1909,Yangju,01호선,107,경기 양주시 장흥면 권율로185번길 103,126.942738201628,37.7358336067252
영등포,1006,Yeongdeungpo,01호선,139,서울 영등포구 경인로 846,126.90787602747,37.5156836953862
오류동,1802,Oryu-dong,01호선,144,서울 구로구 경인로20길 13,126.844766746541,37.4943935518364
오산대,1718,Osan College,01호선,P159,경기 오산시 청학로 45,127.061006563712,37.1557563663889
온수,1821,Onsu,01호선,145,서울특별시 구로구 경인로3길 지하64 (온수동),126.823847928009,37.4919675365056
용산,1003,Yongsan,01호선,135,서울 용산구 한강대로23길 55,126.964824061815,37.5300763645794
인천,1812,Incheon,01호선,161,인천 중구 제물량로 269,126.61682181155,37.4761679680676
제기동,157,Jegi-dong,01호선,125,서울특별시 동대문구 왕산로 지하 93 (제기동) (제기동역),127.034949495921,37.5781752985683
제물포,1810,Jemulpo,01호선,158,인천 미추홀구 경인로 129,126.656966375544,37.4667331048614
종각,152,Jonggak,01호선,131,서울특별시 종로구 종로 지하 55 (종로1가) (종각역),126.983151948921,37.5702288920691
종로3가,153,Jongno 3(sam)-ga,01호선,130,서울특별시 종로구 돈화문로11길 지하26 (돈의동)  ,126.992153252476,37.570420844523
종로3가,153,Jongno 3(sam)-ga,01호선,130,서울특별시 종로구 종로 지하 129 (종로3가) (1호선 종로3가역),126.992153252476,37.570420844523
종로3가,153,Jongno 3(sam)-ga,01호선,130,서울특별시 종로구 돈화문로 지하 30 (묘동) (3호선 종로3가역),126.992153252476,37.570420844523
종로5가,154,Jongno 5(o)-ga,01호선,129,서울특별시 종로구 종로 지하 216  (종로5가) (1호선 종로5가역),127.001539477188,37.570976108369
직산,1726,Jiksan,01호선,P167,충남 천안시 서북구 직산읍 천안대로 1471-33,127.143823728817,36.8709328418739
창동,1022,Chang-dong,01호선,116,서울특별시 도봉구 마들로 11길 77 (4호선 창동역),127.04764318915,37.6533393245862
청량리,158,Cheongnyangni,01호선,124,서울 동대문구 왕산로 214,127.048504385911,37.5807329338809
평택,1724,Pyeongtaek,01호선,P165,경기 평택시 평택로 51,127.085291092947,36.9909823564826
화서,1712,Hwaseo,01호선,P154,경기 수원시 팔달구 덕영대로 692,126.989490219735,37.2841890883582
회기,1015,Hoegi,01호선,123,서울 동대문구 경희대로 23,127.052621405397,37.5954655474126
강남,222,Gangnam,02호선,222,서울특별시 강남구 강남대로 지하 396 (2호선 강남역),127.028000275071,37.4980854357918
강변,214,Gangbyeon,02호선,214,서울특별시 광진구 강변역로 53 (강변역),127.094741101863,37.5351180385975
건대입구,212,Konkuk Univ.,02호선,212,서울특별시 광진구 능동로 지하110 (화양동),127.069203234354,37.5404068198011
건대입구,212,Konkuk Univ.,02호선,212,서울특별시 광진구 아차산로 243 (2호선 건대입구역),127.069203234354,37.5404068198011
교대,223,Seoul Nat`l Univ. of Education,02호선,223,서울특별시 서초구 서초대로 지하 294 (2호선 교대역),127.0120398,37.4934705
교대,223,Seoul Nat`l Univ. of Education,02호선,223,서울특별시 서초구 서초대로 지하 294 (3호선 교대역),127.0120398,37.4934705
구로디지털단지,232,Guro Digital Complex,02호선,232,서울 구로구 도림천로 477,126.901471340443,37.4852608709622
구의,213,Guui,02호선,213,서울특별시 광진구 아차산로 384-1 (구의역),127.086181083988,37.5371739190572
까치산,200,Kkachisan,02호선,234-4,서울특별시 강서구 강서로 지하54 (화곡동),126.846444264065,37.5322306724471
까치산,200,Kkachisan,02호선,234-4,서울특별시 강서구 강서로 지하54 (까치산역),126.846444264065,37.5322306724471
낙성대,227,Nakseongdae,02호선,227,서울특별시 관악구 남부순환로 지하 1928(봉천동) (2호선 낙성대역),126.963523905001,37.4770932409965
당산,237,Dangsan,02호선,237,서울특별시 영등포구 당산로 229(당산동 6가) (2호선 당산역),126.902611795523,37.5347843171332
대림,233,Daerim,02호선,233,서울 구로구 도림천로 351,126.894929187141,37.4933100912585
대림,233,Daerim,02호선,233,서울 구로구 도림천로 351,126.894929187141,37.4933100912585
동대문역사문화공원,205,Dongdaemun History  Culture Park,02호선,205,서울특별시 중구 을지로 지하 279 (2호선 동대문역역사문화공원역),127.009005301929,37.5656635044556
동대문역사문화공원,205,Dongdaemun History  Culture Park,02호선,205,서울특별시 중구 장충단로 지하 230 (4호선 동대문역사문화공원역),127.009005301929,37.5656635044556
뚝섬,210,Ttukseom,02호선,210,서울특별시 성동구 아차산로18 (뚝섬역),127.047387635055,37.5472432239914
문래,235,Mullae,02호선,235,서울특별시 영등포구 당산로 지하 28(문래동3가) (문래역),126.894778820701,37.5179757181801
방배,225,Bangbae,02호선,225,서울특별시 서초구 방배로 지하 80 (방배역),126.997553345516,37.4814561268152
봉천,229,Bongcheon,02호선,229,서울특별시 봉천동,126.9393853,37.482476
사당,226,Sadang,02호선,226,서울특별시 동작구 남부순환로 지하 2089(사당동) (2호선 사당역),126.981558584016,37.4765604303289
사당,226,Sadang,02호선,226,서울특별시 동작구  동작대로 지하 3(사당동) (4호선 사당역),126.981558584016,37.4765604303289
삼성,219,Samseong,02호선,219,서울특별시,127.0609603,37.508861
상왕십리,207,Sangwangsimni,02호선,207,서울특별시 성동구 왕십리로 지하 374 (상왕십리역),127.029274674797,37.564438467635
서울대입구,228,Seoul Nat`l Univ.,02호선,228,서울특별시 관악구 남부순환로 지하 1822 (서울대입구역),126.952713197762,37.4812845080678
서초,224,Seocho,02호선,224,서울특별시 서초구 서초대로 지하 233 (서초역),127.007662120039,37.4918499338918
선릉,220,Seolleung,02호선,220,서울 강남구 테헤란로 지하 340,127.048961694022,37.504497373492
성수,211,Seongsu,02호선,211,서울특별시 성동구 아차산로 100 (성수역),127.056066999327,37.5445888153751
시청,201,City Hall,02호선,201,서울특별시 세종대로 지하 101 (정동) (1호선 시청역),126.702235746357,37.4577376396937
시청,201,City Hall,02호선,201,서울특별시 중구 서소문로 지하 127 (서소문동) (2호선 시청역),126.702235746357,37.4577376396937
신답,245,Sindap,02호선,211-2,서울특별시 성동구 천호대로 232 (신답역),127.047080016548,37.5698401675735
신당,206,Sindang,02호선,206,서울특별시 중구 다산로 지하260 (흥인동),127.019477739585,37.5656742141161
신당,206,Sindang,02호선,206,서울특별시 중구 퇴계로 지하 431-1 (2호선 신당역),127.019477739585,37.5656742141161
신대방,231,Sindaebang,02호선,231,서울특별시 동작구 대림로 2(신대방동 신대방역),126.913507850555,37.4876526951195
신도림,234,Sindorim,02호선,234,서울특별시 구로구 새말로 117-21 (2호선 신도림역),126.891312500851,37.508908482648
신림,230,Sillim,02호선,230,서울특별시 신림동,126.9270589,37.4841985
신설동,246,Sinseol-dong,02호선,211-4,서울특별시 동대문구 왕산로 지하 1 (신설동) (1호선 신설동역),127.024456700382,37.5760299683175
신설동,246,Sinseol-dong,02호선,211-4,서울특별시 동대문구 왕산로 지하 1 (신설동) (2호선 신설동역),127.024456700382,37.5760299683175
신정네거리,249,Sinjeongnegeori,02호선,234-3,서울특별시 양천구 중앙로 지하 261 (2호선 신정네거리역),126.852889567642,37.5202231231721
신촌,240,Sinchon,02호선,240,서울특별시 마포구 신촌로 지하 90 (신촌역),126.936981845317,37.5551992564661
아현,242,Ahyeon,02호선,242,서울특별시 마포구 신촌로 지하 270 (2호선 아현역),126.956146440089,37.5574061779766
양천구청,248,Yangcheon-gu Office,02호선,234-2,서울특별시 양천구 목동로3길 지하 33 (신정동 양천구청역),126.865722369229,37.5123888716808
역삼,221,Yeoksam,02호선,221,서울특별시 강남구 테헤란로 지하 156 (역삼역),127.03646946847,37.5006744185994
영등포구청,236,Yeongdeungpo-gu Office,02호선,236,서울특별시 영등포구 양산로 지하116 (당산동3가),126.89667739939,37.5258305311402
영등포구청,236,Yeongdeungpo-gu Office,02호선,236,서울특별시 영등포구 당산로 121(당산동3가) (2호선 영등포구청역),126.89667739939,37.5258305311402
왕십리,208,Wangsimni,02호선,208,서울특별시 성동구 왕십리로 지하300 (행당동),127.037101112459,37.5612683640285
왕십리,208,Wangsimni,02호선,208,서울특별시 성동구 왕십리로 지하300 (2호선 왕십리역),127.037101112459,37.5612683640285
용답,244,Yongdap,02호선,211-1,서울특별시 성동구 용답길 86 (용답역),127.050891834055,37.5621261721749
용두,250,Yongdu,02호선,211-3,서울특별시 동대문구 천호대로 지하 129 (용두역),127.038275698211,37.5740621283646
을지로3가,203,Euljiro 3(sam)-ga,02호선,203,서울특별시 중구 을지로 지하 106 (2호선 을지로3가역),126.9909855674,37.5662905969967
을지로3가,203,Euljiro 3(sam)-ga,02호선,203,서울특별시 중구 을지로 지하 129 (3호선 을지로3가역),126.9909855674,37.5662905969967
을지로4가,204,Euljiro 4(sa)-ga,02호선,204,서울특별시 중구 창경궁로 지하51 (주교동),126.997632059113,37.5666405038268
을지로4가,204,Euljiro 4(sa)-ga,02호선,204,서울특별시 중구 을지로 지하 178 (2호선 을지로4가역),126.997632059113,37.5666405038268
을지로입구,202,Euljiro 1(il)-ga,02호선,202,서울특별시 중구 을지로 지하 42 (을지입구역),126.982193047079,37.5660373193635
이대,241,Ewha Womans Univ.,02호선,241,서울특별시 마포구 신촌로 지하180 (이대역),126.946431808973,37.556814719896
잠실,216,Jamsil,02호선,216,서울특별시 송파구 올림픽로 305 (신천동),127.100228759082,37.513312862699
잠실,216,Jamsil,02호선,216,서울특별시 송파구 올림픽로 지하 265 (2호선 잠실역),127.100228759082,37.513312862699
잠실나루,215,Jamsillaru,02호선,215,서울특별시 송파구 오금로 20 (잠실나루역),127.103809189146,37.5207114184262
충정로,243,Chungjeongno,02호선,243,서울특별시 서대문구 충정로 지하28-1 (충정로3가),126.964493206988,37.5597623875712
충정로,243,Chungjeongno,02호선,243,서울특별시 서대문구 서소문로 지하 17 (2호선 충정로역),126.964493206988,37.5597623875712
한양대,209,Hanyang Univ.,02호선,209,서울특별시 성동구 왕십리로 206 (한양대역),127.04364001688,37.5557175386988
합정,238,Hapjeong,02호선,238,서울특별시 마포구 양화로 지하45 (합정동),126.914457705386,37.5499122011964
합정,238,Hapjeong,02호선,238,서울특별시 마포구 양화로 지하 55 (2호선 합정역),126.914457705386,37.5499122011964
홍대입구,239,Hongik Univ.,02호선,239,서울특별시 마포구 양화로지하160 (2호선 홍대입구역),126.923778562273,37.5568707448873
가락시장,340,Garak Market,03호선,350,서울특별시 송파구 송파대로 지하257 (가락동),127.118262745146,37.4930992522183
가락시장,340,Garak Market,03호선,350,서울특별시 송파구 송파대로 지하 257 (3호선 가락시장역),127.118262745146,37.4930992522183
경복궁,317,Gyeongbokgung,03호선,327,서울특별시 종로구 사직로 지하 130 (경복궁역),126.973691352767,37.5758061234865
경찰병원,341,National Police Hospital,03호선,351,서울특별시 송파구 중대로 지하 149 (경찰병원역),127.124482397777,37.4960049150853
고속터미널,329,Express Bus Terminal,03호선,339,서울 서초구 신반포로 지하 188,127.005139104471,37.5045533598139
고속터미널,329,Express Bus Terminal,03호선,339,서울 서초구 신반포로 지하 188,127.005139104471,37.5045533598139
교대,330,Seoul Nat`l Univ. of Education,03호선,340,서울특별시 서초구 서초대로 지하 294 (2호선 교대역),127.0120398,37.4934705
교대,330,Seoul Nat`l Univ. of Education,03호선,340,서울특별시 서초구 서초대로 지하 294 (3호선 교대역),127.0120398,37.4934705
구파발,310,Gupabal,03호선,320,서울특별시 은평구 진관2로 지하 15-25 (구파발역),126.918852820009,37.6364357889145
금호,324,Geumho,03호선,334,서울특별시 성동구 동호로 지하 104 (금호역),127.015829169834,37.5482627248715
남부터미널,331,Nambu Bus Terminal,03호선,341,서울특별시 서초구 서초중앙로 지하 31 (남부터미널역),127.01620028391,37.4851996335293
녹번,313,Nokbeon,03호선,323,서울 은평구 통일로62길 17,126.935828008217,37.6008067681825
대곡,1953,Daegok,03호선,314,경기 고양시 덕양구 대주로107번길 71-81,126.810930563348,37.6316971084027
대청,337,Daecheong,03호선,347,서울특별시 강남구 일원로 지하 2 (대청역),127.07952699005,37.4937083222418
대치,335,Daechi,03호선,345,서울특별시 강남구 남부순환로 지하 2952 (대치역),127.063203409529,37.4944966528582
대화,1958,Daehwa,03호선,309,경기 고양시 일산서구 중앙로 지하 1569,126.747500970967,37.676157377075
도곡,334,Dogok,03호선,344,서울특별시 강남구 남부순환로 지하 2814 (3호선 도곡역),127.055499135761,37.490974406085
독립문,316,Dongnimmun,03호선,326,서울특별시 서대문구 통일로 지하 247 (독립문역),126.957916500407,37.5744683797273
동대입구,322,Dongguk Univ.,03호선,332,서울특별시 중구 동호로 지하 256 (동대입구역),127.005314877093,37.5590540173075
마두,1955,Madu,03호선,312,경기 고양시 일산동구 중앙로 지하 1180,126.777611729721,37.6522411365818
매봉,333,Maebong,03호선,343,서울특별시 강남구 남부순환로 지하 2744 (매봉역),127.046711448388,37.4869394661317
무악재,315,Muakjae,03호선,325,서울특별시 서대문구 통일로 지하 361 (무악재역),126.950230954136,37.5825632263526
백석,1954,Baekseok,03호선,313,경기 고양시 일산동구 중앙로 지하 1042,126.788131509803,37.6429623651607
불광,312,Bulgwang,03호선,322,서울특별시 은평구 통일로 지하723-1 (대조동),126.930315855716,37.6100474511107
불광,312,Bulgwang,03호선,322,서울특별시 은평구 통일로 지하 723-1 3호선 (불광역),126.930315855716,37.6100474511107
수서,339,Suseo,03호선,349,서울 강남구 밤고개로 99,127.104469788175,37.4852951142482
신사,327,Sinsa,03호선,337,서울특별시 강남구 도산대로 지하 102 (신사역),127.020312023096,37.5164366431169
압구정,326,Apgujeong,03호선,336,서울특별시 강남구 압구정로 지하 172 (압구정역),127.0285086593,37.5264921751712
약수,323,Yaksu,03호선,333,서울특별시 중구 다산로 지하115 (신당동),127.010891666957,37.5545053994984
약수,323,Yaksu,03호선,333,서울특별시 중구 다산로 지하 122 (3호선 약수역),127.010891666957,37.5545053994984
양재,332,Yangjae,03호선,342,서울특별시 서초구 남부순환로 지하 2585 (3호선 양재역),127.034164133397,37.4845759109484
연신내,311,Yeonsinnae,03호선,321,서울특별시 은평구 통일로 지하849 (갈현동),126.921100623409,37.6192027064253
연신내,311,Yeonsinnae,03호선,321,서울특별시 은평구 통일로 지하 849 3호선 (연신내역),126.921100623409,37.6192027064253
오금,342,Ogeum,03호선,352,서울특별시 송파구 오금로 지하321 (오금동),127.127953219596,37.5021388575469
오금,342,Ogeum,03호선,352,서울특별시 송파구 오금로 지하 321 (3호선 오금역),127.127953219596,37.5021388575469
원흥,1948,Wonheung,03호선,317,경기 고양시 덕양구 권율대로 681,126.873024910144,37.6506907611262
을지로3가,320,Euljiro 3(sam)-ga,03호선,330,서울특별시 중구 을지로 지하 106 (2호선 을지로3가역),126.9909855674,37.5662905969967
을지로3가,320,Euljiro 3(sam)-ga,03호선,330,서울특별시 중구 을지로 지하 129 (3호선 을지로3가역),126.9909855674,37.5662905969967
일원,338,Irwon,03호선,348,서울특별시 강남구 일원로 지하 121 (일원역),127.084129757128,37.4839886684666
잠원,328,Jamwon,03호선,338,서울특별시 서초구 잠원로 4길 지하 46 (잠원역),127.011419491429,37.5128899169357
종로3가,319,Jongno 3(sam)-ga,03호선,329,서울특별시 종로구 돈화문로11길 지하26 (돈의동)  ,126.992153252476,37.570420844523
종로3가,319,Jongno 3(sam)-ga,03호선,329,서울특별시 종로구 종로 지하 129 (종로3가) (1호선 종로3가역),126.992153252476,37.570420844523
종로3가,319,Jongno 3(sam)-ga,03호선,329,서울특별시 종로구 돈화문로 지하 30 (묘동) (3호선 종로3가역),126.992153252476,37.570420844523
주엽,1957,Juyeop,03호선,310,경기 고양시 일산서구 중앙로 지하 1432,126.761263524195,37.6701494878278
지축,309,Jichuk,03호선,319,경기 고양시 덕양구 삼송로 300,126.913853659548,37.6481477713412
충무로,321,Chungmuro,03호선,331, 서울특별시 중구 퇴계로 지하199(충무로역),126.994150735779,37.5613965840169
충무로,321,Chungmuro,03호선,331,서울특별시 중구 퇴계로 지하 199 (충무로역),126.994150735779,37.5613965840169
학여울,336,Hangnyeoul,03호선,346,서울특별시 강남구 남부순환로 지하 3104 (학여울),127.071166599707,37.4968851977644
홍제,314,Hongje,03호선,324,서울특별시 서대문구 통일로 지하 440-1 (홍제역),126.944158007985,37.5887953806088
과천,1453,Gwacheon,04호선,438,경기 과천시 대공원광장로 102,127.01990249053,37.4269323703359
길음,417,Gireum,04호선,417,서울특별시 성북구 동소문로 지하 248 (길음역),127.025059064911,37.6033947825571
남태령,434,Namtaeryeong,04호선,434,서울특별시 서초구 과천대로 지하 816(방배동) (남태령역),126.989085267707,37.4642499558525
노원,411,Nowon,04호선,411,서울특별시 노원구 동일로 지하1409 (상계동),127.063447137624,37.6563413439665
노원,411,Nowon,04호선,411,서울특별시 노원구 상계로 69-1 (4호선 노원역),127.063447137624,37.6563413439665
당고개,409,Danggogae,04호선,409,서울특별시 노원구 상계로 305 (당고개역),127.079068741818,37.6702179144106
대공원,1452,Seoul Grand Park,04호선,437,인천 남동구 무네미로 236,126.760172604759,37.4577612956601
대야미,1752,Daeyami,04호선,446,경기 군포시 송부로73번길 26,126.916898808774,37.3279668802974
동대문,421,Dongdaemun,04호선,421,서울특별시 중구 마른내로 지하162 (광희동1가),127.010631546623,37.5716676040162
동대문,421,Dongdaemun,04호선,421,서울특별시 종로구 종로 지하 302 (창신1동) (1호선 동대문역),127.010631546623,37.5716676040162
동대문,421,Dongdaemun,04호선,421,서울특별시 종로구  율곡로 지하 308 (종로6가) (4호선 동대문역),127.010631546623,37.5716676040162
동대문역사문화공원,422,Dongdaemun History  Culture Park,04호선,422,서울특별시 중구 을지로 지하 279 (2호선 동대문역역사문화공원역),127.009005301929,37.5656635044556
동대문역사문화공원,422,Dongdaemun History  Culture Park,04호선,422,서울특별시 중구 장충단로 지하 230 (4호선 동대문역사문화공원역),127.009005301929,37.5656635044556
동작,431,Dongjak,04호선,431,서울특별시 동작구 현충로 257(동작동) (4호선 동작역),126.980318892082,37.5029789395574
명동,424,Myeong-dong,04호선,424,서울특별시 중구 퇴계로 지하 126 (명동역),126.986400086711,37.5609634671841
미아,415,Mia,04호선,415,서울특별시 강북구 도봉로 지하 198 (미아역),127.026041090189,37.6266544891889
미아사거리,416,Miasamgeori,04호선,416,서울특별시 강북구 도봉로 지하 50 (미아삼거리역),127.030086636648,37.6132792649944
사당,433,Sadang,04호선,433,서울특별시 동작구 남부순환로 지하 2089(사당동) (2호선 사당역),126.981558584016,37.4765604303289
사당,433,Sadang,04호선,433,서울특별시 동작구  동작대로 지하 3(사당동) (4호선 사당역),126.981558584016,37.4765604303289
삼각지,428,Samgakji,04호선,428,서울특별시 용산구 한강대로 지하185 (한강로1가),126.974053962692,37.5356072956409
삼각지,428,Samgakji,04호선,428,서울특별시 용산구 한강대로 지하 180(한강로1가) (삼각지역),126.974053962692,37.5356072956409
상계,410,Sanggye,04호선,410,서울특별시 노원구 상계로 182 (상계역),127.073419461607,37.6607216309267
서울역,426,Seoul Station,04호선,426,서울특별시 세종대로 지하 2 (남대문로 5가) (1호선 서울역),126.972091251236,37.5559802396321
서울역,426,Seoul Station,04호선,426,서울특별시 용산구 한강대로 지하 392 (동자동) (4호선 서울역),126.972091251236,37.5559802396321
선바위,1450,Seonbawi,04호선,435,경기 과천시 중앙로 지하 440,127.001365246832,37.451870539762
성신여대입구,418,Sungshin Women`s Univ.,04호선,418,서울특별시 성북구 동소문로 지하 102 (성신여대역),127.017124928876,37.5929699315407
수유,414,Suyu,04호선,414,서울특별시 강북구 도봉로 지하 338 (수유역),127.025510241279,37.637884492978
숙대입구,427,Sookmyung Women`s Univ.,04호선,427,서울특별시 용산구 한강대로 지하 306(갈월동) (숙대입구역),126.972118127373,37.5445952301115
신길온천,1760,Singil oncheon,04호선,454,경기 안산시 단원구 황고개로 2,126.766883225692,37.3377084319562
신용산,429,Sinyongsan,04호선,429,서울특별시 용산구 한강대로 지하 112(한강로2가) (신용산역),126.967965039183,37.5292591489375
쌍문,413,Ssangmun,04호선,413,서울특별시 도봉구 도봉로 지하 486-1 (쌍문역),127.03465609756,37.6485426057036
오이도,1762,Oido,04호선,456,경기 시흥시 역전로 430,126.738417412838,37.3616054146721
이촌,430,Ichon,04호선,430,서울 용산구 이촌로71길 42,126.97354268962,37.5224129138313
정부과천청사,1454,Government Complex Gwacheon,04호선,439,경기 과천시 관문로 47,126.983494781777,37.4266535936461
창동,412,Chang-dong,04호선,412,서울특별시 도봉구 마들로 11길 77 (4호선 창동역),127.04764318915,37.6533393245862
총신대입구,432,Chongshin Univ.,04호선,432,서울특별시 동작구 동작대로 지하 117(사당동) (4호선 총신대입구역),126.982211871752,37.4867995957995
충무로,423,Chungmuro,04호선,423, 서울특별시 중구 퇴계로 지하199(충무로역),126.994150735779,37.5613965840169
충무로,423,Chungmuro,04호선,423,서울특별시 중구 퇴계로 지하 199 (충무로역),126.994150735779,37.5613965840169
평촌,1456,Pyeongchon,04호선,441,경기 안양시 동안구 관평로69번길 7-55,126.964621579868,37.3832419881171
한대앞,1755,Hanyang Univ. at Ansan,04호선,449,경기 안산시 상록구 충장로 337,126.853690806599,37.3097653493286
한성대입구,419,Hansung Univ.,04호선,419,서울특별시 성북구 삼선교로 지하 1 (한성대입구역),127.006018948943,37.5884228114979
혜화,420,Hyehwa,04호선,420,서울특별시 종로구 대학로 지하 120 (혜화역),127.001942745502,37.5820439179086
회현,425,Hoehyeon,04호선,425,서울 중구 퇴계로 지하 54,126.978238128257,37.5585367610574
강동,2549,Gangdong,05호선,548,서울특별시 강동구 천호대로 지하1097 (천호동),127.132396300314,37.5358819145235
개롱,2559,Gaerong,05호선,P553,서울특별시 송파구 오금로 지하402 (가락동),127.135079598384,37.4979682783882
개화산,2512,Gaehwasan,05호선,511,서울특별시 강서구 양천로 22 (방화동),126.806816115411,37.5725355310968
거여,2560,Geoyeo,05호선,P554,서울특별시 송파구 오금로 지하499 (거여동),127.143773841911,37.4933304500736
고덕,2553,Godeok,05호선,552,서울특별시 강동구 고덕로 지하253 (고덕동),127.154163212607,37.5550461508658
공덕,2530,Gongdeok,05호선,529,서울특별시 마포구 마포대로 지하100 (공덕동),126.951451177648,37.5445416897534
광나루,2547,Gwangnaru,05호선,546,서울특별시 광진구 아차산로 지하571 (광장동,127.103521464507,37.5452991715677
광화문,2534,Gwanghwamun,05호선,533,서울특별시 종로구 세종대로 지하172 (세종로),126.976423148119,37.5716477085545
군자,2545,Gunja,05호선,544,서울특별시 광진구 천호대로 지하550 (능동)  ,127.079512877207,37.5571496853206
굽은다리,2551,Gubeundari,05호선,550,서울특별시 강동구 양재대로 지하1572 (명일동),127.142882363205,37.5455169038965
길동,2550,Gil-dong,05호선,549,서울특별시 강동구 양재대로 지하1480 (길동),127.140021295948,37.5378264874159
김포공항,2513,Gimpo Intl. Airport,05호선,512,서울특별시 강서구 하늘길 지하77 (방화동),126.80191588831,37.5619657741382
까치산,2519,Kkachisan,05호선,518,서울특별시 강서구 강서로 지하54 (화곡동),126.846444264065,37.5322306724471
까치산,2519,Kkachisan,05호선,518,서울특별시 강서구 강서로 지하54 (까치산역),126.846444264065,37.5322306724471
답십리,2543,Dapsimni,05호선,542,서울특별시 성동구 천호대로 지하300 (용답동),127.052561189877,37.5669763864078
동대문역사문화공원,2537,Dongdaemun History  Culture Park,05호선,536,서울특별시 중구 을지로 지하 279 (2호선 동대문역역사문화공원역),127.009005301929,37.5656635044556
동대문역사문화공원,2537,Dongdaemun History  Culture Park,05호선,536,서울특별시 중구 장충단로 지하 230 (4호선 동대문역사문화공원역),127.009005301929,37.5656635044556
둔촌동,2555,Dunchon-dong,05호선,P549,서울특별시 강동구 양재대로 지하1369 (둔촌동),127.136214649814,37.5276568424723
마곡,2515,Magok,05호선,514,서울특별시 강서구 공항대로 지하163 (가양동),126.824689875377,37.5601804825766
마장,2542,Majang,05호선,541,서울특별시 성동구 마장로 지하296 (마장동),127.042984855663,37.5661389565959
마천,2561,Macheon,05호선,P555,서울특별시 송파구 마천로57길 지하7 (마천동),127.152859864985,37.4950381629493
마포,2529,Mapo,05호선,528,서울특별시 마포구 마포대로 지하33 (도화동),126.945864834547,37.5395549311262
명일,2552,Myeongil,05호선,551,서울특별시 강동구 양재대로 지하1632 (명일동),127.14404374474,37.5513978958277
목동,2521,Mok-dong,05호선,520,서울특별시 양천구 오목로 지하245 (목동),126.864625274831,37.5261333139242
발산,2516,Balsan,05호선,515,서울특별시 강서구 공항대로 지하267 (가양동),126.837740491891,37.5586784369728
방이,2557,Bangi,05호선,P551,서울특별시 송파구 양재대로 지하1127 (방이동),127.126096046986,37.5087506251989
방화,2511,Banghwa,05호선,510,서울특별시 강서구 금낭화로 지하132 (방화동),126.812819296675,37.5776031994404
상일동,2554,Sangil-dong,05호선,553,서울특별시 강동구 고덕로 지하359 (상일동),127.165904967475,37.5566773969007
서대문,2533,Seodaemun,05호선,532,서울특별시 종로구 통일로 지하126 (평동),126.966637058163,37.5657533181008
송정,2514,Songjeong,05호선,513,서울특별시 강서구 공항대로 지하33 (공항동),126.8099107,37.5614198
신금호,2539,Singeumho,05호선,538,서울특별시 성동구 금호로 지하154 (금호동2가),127.020493165536,37.5544752914945
신길,2526,Singil,05호선,525,서울 영등포구 영등포로 327,126.91827217851,37.5168013825121
신정,2520,Sinjeong,05호선,519,서울특별시 양천구 오목로 지하179 (신정동),126.856097474225,37.5250276134139
아차산,2546,Achasan,05호선,545,서울특별시 광진구 천호대로 지하657 (능동),127.089566085085,37.5522482688631
애오개,2531,Aeogae,05호선,530,서울특별시 마포구 마포대로 지하210 (아현동),126.956669363197,37.5534131497489
양평,2523,Yangpyeong,05호선,522,서울특별시 영등포구 양산로 지하21 (양평동2가),126.886421377197,37.5255794231765
여의나루,2528,Yeouinaru,05호선,527,서울특별시 영등포구 여의동로 지하343 (여의도동),126.93298596744,37.5271469489465
여의도,2527,Yeouido,05호선,526,서울특별시 영등포구 여의나루로 지하40 (여의도동),126.92466104293,37.5211700890445
영등포구청,2524,Yeongdeungpo-gu Office,05호선,523,서울특별시 영등포구 양산로 지하116 (당산동3가),126.89667739939,37.5258305311402
영등포구청,2524,Yeongdeungpo-gu Office,05호선,523,서울특별시 영등포구 당산로 121(당산동3가) (2호선 영등포구청역),126.89667739939,37.5258305311402
영등포시장,2525,Yeongdeungpo Market,05호선,524,서울특별시 영등포구 양산로 지하200 (영등포동5가),126.905181566803,37.5227094270715
오금,2558,Ogeum,05호선,P552,서울특별시 송파구 오금로 지하321 (오금동),127.127953219596,37.5021388575469
오금,2558,Ogeum,05호선,P552,서울특별시 송파구 오금로 지하 321 (3호선 오금역),127.127953219596,37.5021388575469
오목교,2522,Omokgyo,05호선,521,서울특별시 양천구 오목로 지하342 (목동),126.875307312696,37.5245340839144
올림픽공원,2556,Olympic Park,05호선,P550,서울특별시 송파구 양재대로 지하1233 (방이동),127.130963675401,37.5163389870117
왕십리,2541,Wangsimni,05호선,540,서울특별시 성동구 왕십리로 지하300 (행당동),127.037101112459,37.5612683640285
왕십리,2541,Wangsimni,05호선,540,서울특별시 성동구 왕십리로 지하300 (2호선 왕십리역),127.037101112459,37.5612683640285
우장산,2517,Ujangsan,05호선,516,서울특별시 강서구 강서로 지하262 (화곡동),126.836327173846,37.5488160380135
을지로4가,2536,Euljiro 4(sa)-ga,05호선,535,서울특별시 중구 창경궁로 지하51 (주교동),126.997632059113,37.5666405038268
을지로4가,2536,Euljiro 4(sa)-ga,05호선,535,서울특별시 중구 을지로 지하 178 (2호선 을지로4가역),126.997632059113,37.5666405038268
장한평,2544,Janghanpyeong,05호선,543,서울특별시 동대문구 천호대로 지하405 (장안동),127.06370366347,37.5616047539166
종로3가,2535,Jongno 3(sam)-ga,05호선,534,서울특별시 종로구 돈화문로11길 지하26 (돈의동)  ,126.992153252476,37.570420844523
종로3가,2535,Jongno 3(sam)-ga,05호선,534,서울특별시 종로구 종로 지하 129 (종로3가) (1호선 종로3가역),126.992153252476,37.570420844523
종로3가,2535,Jongno 3(sam)-ga,05호선,534,서울특별시 종로구 돈화문로 지하 30 (묘동) (3호선 종로3가역),126.992153252476,37.570420844523
천호,2548,Cheonho,05호선,547,서울특별시 강동구 천호대로 지하997 (천호동),127.123928366579,37.5385103352887
청구,2538,Cheonggu,05호선,537,서울특별시 중구 청구로 지하77 (신당동),127.013943845279,37.5602101936978
충정로,2532,Chungjeongno,05호선,531,서울특별시 서대문구 충정로 지하28-1 (충정로3가),126.964493206988,37.5597623875712
충정로,2532,Chungjeongno,05호선,531,서울특별시 서대문구 서소문로 지하 17 (2호선 충정로역),126.964493206988,37.5597623875712
행당,2540,Haengdang,05호선,539,서울특별시 성동구 행당로 지하89 (행당동),127.029511840513,37.5573637818732
화곡,2518,Hwagok,05호선,517,서울특별시 강서구 화곡로 지하168 (화곡동),126.840455026335,37.5416507925709
고려대,2641,Korea Univ.,06호선,640,서울특별시 성북구 종암로 지하1 (종암동),127.036308984843,37.5904439885217
공덕,2627,Gongdeok,06호선,626,서울특별시 마포구 마포대로 지하100 (공덕동),126.951451177648,37.5445416897534
광흥창,2625,Gwangheungchang,06호선,624,서울특별시 마포구 독막로 지하165 (창전동),126.93203078679,37.547487384826
구산,2616,Gusan,06호선,615,서울특별시 은평구 연서로 지하137-1 (구산동),126.917258344574,37.6112466906903
녹사평,2630,Noksapyeong,06호선,629,서울특별시 용산구 녹사평대로 지하195 (용산동4가),126.9865496751,37.5347227952064
대흥,2626,Daeheung,06호선,625,서울특별시 마포구 대흥로 지하85 (대흥동),126.942473188734,37.5476479056751
독바위,2614,Dokbawi,06호선,613,서울특별시 은평구 불광로 지하129-1 (불광동),126.933053652461,37.6184141599944
돌곶이,2644,Dolgoji,06호선,643,서울특별시 성북구 화랑로 지하243 (석관동),127.056438124632,37.6105450141613
동묘앞,2637,Dongmyo,06호선,636,서울특별시 종로구 지봉로 지하24 (숭인동),127.016364305231,37.5732177197872
동묘앞,2637,Dongmyo,06호선,636,서울특별시 종로구 종로 359 (숭인동) (1호선 동묘앞역),127.016364305231,37.5732177197872
디지털미디어시티,2619,Digital Media City,06호선,618,서울특별시 은평구 수색로 지하175 (증산동),126.901277609265,37.5760124042175
마포구청,2621,Mapo-gu Office,06호선,620,서울특별시 마포구 월드컵로 지하190 (성산동),126.903425598797,37.5634871865932
망원,2622,Mangwon,06호선,621,서울특별시 마포구 월드컵로 지하77 (망원동),126.91009561678,37.556082490876
버티고개,2633,Beotigogae,06호선,632,서울특별시 중구 다산로 지하38 (신당동),127.006730866101,37.5478275106099
보문,2639,Bomun,06호선,638,서울특별시 성북구 보문로 지하116 (보문동1가),127.020003313995,37.5855427036932
봉화산,2648,Bonghwasan,06호선,647,서울특별시 중랑구 신내로 지하232 (신내동),127.091361250519,37.6173526373999
불광,2613,Bulgwang,06호선,612,서울특별시 은평구 통일로 지하723-1 (대조동),126.930315855716,37.6100474511107
불광,2613,Bulgwang,06호선,612,서울특별시 은평구 통일로 지하 723-1 3호선 (불광역),126.930315855716,37.6100474511107
삼각지,2629,Samgakji,06호선,628,서울특별시 용산구 한강대로 지하185 (한강로1가),126.974053962692,37.5356072956409
삼각지,2629,Samgakji,06호선,628,서울특별시 용산구 한강대로 지하 180(한강로1가) (삼각지역),126.974053962692,37.5356072956409
상수,2624,Sangsu,06호선,623,서울 마포구 독막로 지하 85,126.922503466937,37.5477482120012
상월곡,2643,Sangwolgok,06호선,642,서울특별시 성북구 화랑로 지하157 (상월곡동),127.048829192974,37.6065588265169
새절,2617,Saejeol,06호선,616,서울특별시 은평구 증산로 지하400 (신사동,126.913580663181,37.5908600479967
석계,2645,Seokgye,06호선,644,서울특별시 노원구 화랑로 지하347-1 (월계동),127.065687159447,37.6150068855165
신당,2636,Sindang,06호선,635,서울특별시 중구 다산로 지하260 (흥인동),127.019477739585,37.5656742141161
신당,2636,Sindang,06호선,635,서울특별시 중구 퇴계로 지하 431-1 (2호선 신당역),127.019477739585,37.5656742141161
안암,2640,Anam,06호선,639,서울특별시 성북구 인촌로 지하89 (안암동5가),127.029233420248,37.586307417971
약수,2634,Yaksu,06호선,633,서울특별시 중구 다산로 지하115 (신당동),127.010891666957,37.5545053994984
약수,2634,Yaksu,06호선,633,서울특별시 중구 다산로 지하 122 (3호선 약수역),127.010891666957,37.5545053994984
역촌,2612,Yeokchon,06호선,611,서울 은평구 서오릉로 지하 63,126.922844876471,37.6062265591065
연신내,2615,Yeonsinnae,06호선,614,서울특별시 은평구 통일로 지하849 (갈현동),126.921100623409,37.6192027064253
연신내,2615,Yeonsinnae,06호선,614,서울특별시 은평구 통일로 지하 849 3호선 (연신내역),126.921100623409,37.6192027064253
월곡,2642,Wolgok,06호선,641,서울특별시 성북구 월곡로 지하107 (하월곡동),127.041460725816,37.6018044172918
월드컵경기장,2620,World Cup Stadium,06호선,619,서울특별시 마포구 월드컵로 지하240 (성산동),126.899098148061,37.5696355653344
응암,2611,Eungam,06호선,610,서울특별시 은평구 증산로 지하477 (역촌동),126.915542187709,37.5984910629281
이태원,2631,Itaewon,06호선,630,서울특별시 용산구 이태원로 지하177 (이태원동),126.994333861918,37.5345252050511
증산,2618,Jeungsan,06호선,617,서울특별시 은평구 증산로 지하306 (증산동),126.9074973,37.583933
창신,2638,Changsin,06호선,637,서울특별시 종로구 지봉로 지하112 (창신동),127.015296884838,37.5794156449305
청구,2635,Cheonggu,06호선,634,서울특별시 중구 청구로 지하77 (신당동),127.013943845279,37.5602101936978
태릉입구,2646,Taereung,06호선,645,서울특별시 노원구 동일로 지하992-1 (공릉동),127.075405300578,37.618459513199
한강진,2632,Hangangjin,06호선,631,서울특별시 용산구 이태원로 지하287 (한남동),127.001765135176,37.5397907743775
합정,2623,Hapjeong,06호선,622,서울특별시 마포구 양화로 지하45 (합정동),126.914457705386,37.5499122011964
합정,2623,Hapjeong,06호선,622,서울특별시 마포구 양화로 지하 55 (2호선 합정역),126.914457705386,37.5499122011964
화랑대,2647,Hwarangdae,06호선,646,서울특별시 노원구 화랑로 지하510 (공릉동),127.08354407564,37.6198415528121
효창공원앞,2628,Hyochang park,06호선,627,서울특별시 용산구 백범로 지하287 (효창동),126.96139810075,37.5393087503306
가산디지털단지,2748,Gasan Digital Complex,07호선,746,서울특별시 금천구 벚꽃로 309 (가산동),126.882661758356,37.4803959660982
강남구청,2732,Gangnam-gu Office,07호선,730,서울특별시 강남구 학동로 지하346 (삼성동),127.041309814563,37.5172152713709
건대입구,2729,Konkuk Univ.,07호선,727,서울특별시 광진구 능동로 지하110 (화양동),127.069203234354,37.5404068198011
건대입구,2729,Konkuk Univ.,07호선,727,서울특별시 광진구 아차산로 243 (2호선 건대입구역),127.069203234354,37.5404068198011
고속터미널,2736,Express Bus Terminal,07호선,734,서울 서초구 신반포로 지하 188,127.005139104471,37.5045533598139
고속터미널,2736,Express Bus Terminal,07호선,734,서울 서초구 신반포로 지하 188,127.005139104471,37.5045533598139
공릉,2718,Gongneung,07호선,716,서울특별시 노원구 동일로 지하1074 (공릉동),127.073033585328,37.6255427648558
군자,2727,Gunja,07호선,725,서울특별시 광진구 천호대로 지하550 (능동)  ,127.079512877207,37.5571496853206
굴포천,2760,Gulpocheon,07호선,758,인천광역시 부평구 길주로 지하623 (삼산동),126.731345645994,37.5070471436642
까치울,2753,Kkachiul,07호선,751,경기도 부천시 원미구 길주로 지하626 (춘의동),126.811335931255,37.5062263216567
남구로,2747,Namguro,07호선,745,서울 구로구 도림로 지하 7,126.887970257024,37.4869892904115
남성,2739,Namseong,07호선,737,서울 동작구 사당로 지하 218,126.971284511719,37.4846359263908
내방,2737,Naebang,07호선,735,서울특별시 서초구 서초대로 지하103 (방배동),126.993600180589,37.4876585212369
노원,2715,Nowon,07호선,713,서울특별시 노원구 동일로 지하1409 (상계동),127.063447137624,37.6563413439665
노원,2715,Nowon,07호선,713,서울특별시 노원구 상계로 69-1 (4호선 노원역),127.063447137624,37.6563413439665
논현,2734,Nonhyeon,07호선,732,서울특별시 강남구 학동로 지하102 (논현동),127.021653112054,37.5112018042687
대림,2746,Daerim,07호선,744,서울 구로구 도림천로 351,126.894929187141,37.4933100912585
대림,2746,Daerim,07호선,744,서울 구로구 도림천로 351,126.894929187141,37.4933100912585
도봉산,2712,Dobongsan,07호선,710,서울 도봉구 도봉로 948,127.046062716639,37.6895116783324
뚝섬유원지,2730,Ttukseom Park,07호선,728,서울특별시 광진구 능동로 10 (자양동),127.066796746584,37.5315568172484
마들,2714,Madeul,07호선,712,서울특별시 노원구 동일로 지하1530-1 (상계동),127.057712619869,37.6652017465321
먹골,2720,Meokgol,07호선,718,서울특별시 중랑구 동일로 지하901 (묵동),127.077762187968,37.6106193846197
면목,2723,Myeonmok,07호선,721,서울특별시 중랑구 면목로 지하407 (면목동),127.087503803859,37.5887148877725
반포,2735,Banpo,07호선,733,서울특별시 서초구 신반포로 지하241 (잠원동),127.011586161943,37.5081614290284
보라매,2744,Boramae,07호선,742,서울특별시 동작구 상도로 지하2 (대방동),126.920611175261,37.4999217552104
부천시청,2757,Bucheon City Hall,07호선,755,경기도 부천시 원미구 길주로 지하202 (중동),126.76401271225,37.5046574302733
부천종합운동장,2754,Bucheon Stadium,07호선,752,경기도 부천시 원미구 길주로 지하502 (춘의동),126.797233841984,37.5054255130821
부평구청,2761,Bupyeong-gu Office,07호선,759,인천광역시 부평구 길주로 지하527 (갈산동),126.72144197999,37.5074335057831
사가정,2724,Sagajeong,07호선,722,서울특별시 중랑구 사가정로 지하393 (면목동),127.088504554212,37.5809403751459
삼산체육관,2759,Samsan Gymnasium,07호선,757,인천광역시 부평구 길주로 지하713 (삼산동),126.741423266126,37.5065022485406
상도,2741,Sangdo,07호선,739,서울 동작구 상도로 지하 272,126.947917975554,37.5028706251049
수락산,2713,Suraksan,07호선,711,서울특별시 노원구 동일로 지하1662 (상계동),127.055350968781,37.6778814656816
숭실대입구,2740,Soongsil Univ.,07호선,738,서울특별시 동작구 상도로 지하378 (상도동),126.953621963422,37.4963172817574
신대방삼거리,2743,Sindaebangsamgeori,07호선,741,서울특별시 동작구 상도로 지하76 (대방동)  ,126.928215469236,37.4997572316574
신중동,2756,Sinjung-dong,07호선,754,경기도 부천시 원미구 길주로 지하314 (중동),126.776897204578,37.5029525402622
신풍,2745,Sinpung,07호선,743,서울특별시 영등포구 신풍로 지하27 (신길동),126.90975434386,37.5001229935524
어린이대공원,2728,Children`s  Grand Park,07호선,726,서울특별시 광진구 능동로 지하210 (화양동),127.074655256871,37.5479626782211
온수,2752,Onsu,07호선,750,서울특별시 구로구 경인로3길 지하64 (온수동),126.823847928009,37.4919675365056
용마산,2725,Yongmasan,07호선,723,서울특별시 중랑구 용마산로 지하227 (면목동),127.086761764772,37.573715696822
이수,2738,Isu,07호선,736,서울특별시 동작구 사당로 지하310 (사당동),126.982211871752,37.4867995957995
장승배기,2742,Jangseungbaegi,07호선,740,서울특별시 동작구 상도로 지하188 (상도동),126.939072381356,37.5048990621814
장암,2711,Jangam,07호선,709,경기도 의정부시 동일로 121 (장암동),127.052820038013,37.6999570630957
중계,2716,Junggye,07호선,714,서울특별시 노원구 동일로 지하1308-1 (중계동),127.06411035896,37.6450921230569
중곡,2726,Junggok,07호선,724,서울 광진구 능동로 지하 417,127.084264774132,37.5658752433562
중화,2721,Junghwa,07호선,719,서울특별시 중랑구 동일로 지하797 (중화동),127.079312037122,37.6025526943256
천왕,2751,Cheonwang,07호선,749,서울특별시 구로구 오리로 지하1154 (오류동),126.838604215448,37.4868564822373
청담,2731,Cheongdam,07호선,729,서울특별시 강남구 학동로 지하508 (청담동),127.053717937903,37.519455579961
춘의,2755,Chunui,07호선,753,경기도 부천시 원미구 길주로 지하406 (춘의동),126.786996627015,37.5036991939036
태릉입구,2719,Taereung,07호선,717,서울특별시 노원구 동일로 지하992-1 (공릉동),127.075405300578,37.618459513199
하계,2717,Hagye,07호선,715,서울특별시 노원구 동일로 지하1196 (하계동),127.067991278758,37.6364765391858
학동,2733,Hak-dong,07호선,731,서울 강남구 학동로 지하 180,127.031899643776,37.5143584020133
가락시장,2818,Garak Market,08호선,817,서울특별시 송파구 송파대로 지하257 (가락동),127.118262745146,37.4930992522183
가락시장,2818,Garak Market,08호선,817,서울특별시 송파구 송파대로 지하 257 (3호선 가락시장역),127.118262745146,37.4930992522183
강동구청,2813,Gangdong-gu Office,08호선,812,서울특별시 강동구 올림픽로 지하550 (성내동),127.12044373032,37.5302111983522
남한산성입구,2823,Namhansanseong,08호선,822,경기도 성남시 수정구 산성대로 지하445 (단대동)  ,127.159882577768,37.4516686968693
단대오거리,2824,Dandaeogeori,08호선,823,경기도 성남시 수정구 산성대로 지하365 (신흥동),127.156773608013,37.4450236786683
모란,2827,Moran,08호선,826,경기도 성남시 수정구 산성대로 지하100 (수진동),127.129972447837,37.4340383230261
몽촌토성,2814,Mongchontoseong,08호선,813,서울특별시 송파구 올림픽로 지하383 (신천동),127.112863087986,37.5178064826321
문정,2819,Munjeong,08호선,818,서울특별시 송파구 송파대로 지하179 (문정동),127.122484886901,37.4860310539381
복정,2821,Bokjeong,08호선,820,서울특별시 송파구 송파대로 지하6 (장지동),127.126724009736,37.4707418689753
산성,2822,Sanseong,08호선,821,경기도 성남시 수정구 수정로 지하365 (신흥동),127.150073936897,37.4567993089902
석촌,2816,Seokchon,08호선,815,서울특별시 송파구 송파대로 지하439 (석촌동),127.107004062699,37.5054141216925
송파,2817,Songpa,08호선,816,서울특별시 송파구 송파대로 지하354 (가락동),127.112193506363,37.4997149535067
수진,2826,Sujin,08호선,825,경기도 성남시 수정구 산성대로 지하200 (수진동),127.140534508419,37.4373779787206
암사,2811,Amsa,08호선,810,서울특별시 강동구 올림픽로 지하776 (암사동),127.127541862871,37.5501590807388
잠실,2815,Jamsil,08호선,814,서울특별시 송파구 올림픽로 305 (신천동),127.100228759082,37.513312862699
잠실,2815,Jamsil,08호선,814,서울특별시 송파구 올림픽로 지하 265 (2호선 잠실역),127.100228759082,37.513312862699
장지,2820,Jangji,08호선,819,서울특별시 송파구 송파대로 지하82 (장지동),127.12617656737,37.4786316933099
천호,2812,Cheonho,08호선,811,서울특별시 강동구 천호대로 지하997 (천호동),127.123928366579,37.5385103352887
가양,4107,Gayang,09호선,907,서울특별시,126.8520553,37.561553
개화,4101,Gaehwa,09호선,901,서울 중구 남대문로 52-5,126.981877068486,37.5621089273532
고속터미널,4123,Express Bus Terminal,09호선,923,서울 서초구 신반포로 지하 188,127.005139104471,37.5045533598139
고속터미널,4123,Express Bus Terminal,09호선,923,서울 서초구 신반포로 지하 188,127.005139104471,37.5045533598139
공항시장,4103,Airport Market,09호선,903,서울 강서구 방화동로3가길 10,126.809217030865,37.5632953388758
구반포,4121,Gubanpo,09호선,921,서울 서초구 신반포로15길 14,126.994582068833,37.504472691052
국회의사당,4114,National Assembly,09호선,914,서울 영등포구 의사당대로 1,126.914166375619,37.5319101600816
김포공항,4102,Gimpo Intl. Airport,09호선,902,서울특별시 강서구 하늘길 지하77 (방화동),126.80191588831,37.5619657741382
노들,4118,Nodeul,09호선,918,서울 종로구 동숭길 25,127.003523153096,37.5799219801211
노량진,4117,Noryangjin,09호선,917,서울 동작구 노량진로 174,126.945392280831,37.5136064876753
당산,4113,Dangsan,09호선,913,서울특별시 영등포구 당산로 229(당산동 6가) (2호선 당산역),126.902611795523,37.5347843171332
동작,4120,Dongjak,09호선,920,서울특별시 동작구 현충로 257(동작동) (4호선 동작역),126.980318892082,37.5029789395574
봉은사,4129,Bongeunsa,09호선,929,서울 강남구 봉은사로 531,127.057665896967,37.5154625294802
삼성중앙,4128,Samseong Jungang,09호선,928,서울 동대문구 왕산로 34,127.027214431303,37.5764269758589
샛강,4116,Saetgang,09호선,916,경기 포천시 내촌면 금강로2606번길 1,127.244653877078,37.8027418103411
석촌,4133,Seokchon(Hansol Hospital),09호선,933,서울특별시 송파구 송파대로 지하439 (석촌동),127.107004062699,37.5054141216925
선유도,4112,Seonyudo,09호선,912,서울특별시 양평동5가,126.8917213,37.537855
선정릉,4127,Seonjeongneung,09호선,927,서울 강남구 선릉로100길 1,127.048929629336,37.5091089248325
신반포,4122,Sinbanpo,09호선,922,서울 서초구 신반포로 177,127.003697614149,37.5062388306672
양천향교,4106,Yangcheon Hyanggyo,09호선,906,서울 강서구 양천로47나길 53,126.839837080609,37.5730899229245
언주,4126,Eonju,09호선,926,서울 강남구 봉은사로 지하 102,127.033970921595,37.5073353959717
여의도,4115,Yeouido,09호선,915,서울특별시 영등포구 여의나루로 지하40 (여의도동),126.92466104293,37.5211700890445
올림픽공원,4136,Olympic Park,09호선,936,서울특별시 송파구 양재대로 지하1233 (방이동),127.130963675401,37.5163389870117
종합운동장,4130,Sports Complex,09호선,930,서울특별시 송파구 올림픽로 지하 23 (종합운동장역),127.0715853,37.511051
중앙보훈병원,4138,VHS Medical Center,09호선,938,서울 강동구 진황도로61길 53,127.147757381562,37.5293512633534
한성백제,4135,Hanseong Baekje,09호선,935,서울 송파구 위례성대로 71,127.120895427979,37.5154119474438
흑석,4119,Heukseok,09호선,919,서울 동작구 현충로 55,126.962749345149,37.5105428617281
